#dP2023  2  2 18  0  0.00000000      96 __u+U ITR00 EXT  IAC
## 2247 410400.00000000   900.00000000 59977 0.7500000000000
+  118   C06C07C08C09C10C11C12C13C14C16C19C20C21C22C23C24C25
+        C26C27C28C29C30C32C33C34C35C36C37C38C39C40C41C42C43
+        C44C45C46E01E02E03E04E05E07E08E09E10E11E12E14E15E18
+        E19E21E24E25E26E27E30E31E33E34E36G01G02G03G04G05G06
+        G07G08G09G10G11G12G13G14G15G16G17G18G19G20G21G22G23
+        G24G25G26G27G29G30G31G32J02J03J04R01R02R03R04R05R07
+        R08R09R11R12R13R14R15R16R17R18R19R20R21R22R24R25  0
++         0  0  0  0  0  0  0  0  0  0  0  0  0  0  0  0  0
++         0  0  0  0  0  0  0  0  0  0  0  0  0  0  0  0  0
++         0  0  0  0  0  0  0  0  0  0  0  0  0  0  0  0  0
++         0  0  0  0  0  0  0  0  0  0  0  0  0  0  0  0  0
++         0  0  0  0  0  0  0  0  0  0  0  0  0  0  0  0  0
++         0  0  0  0  0  0  0  0  0  0  0  0  0  0  0  0  0
++         0  0  0  0  0  0  0  0  0  0  0  0  0  0  0  0  0
%c M  cc GPS ccc cccc cccc cccc cccc ccccc ccccc ccccc ccccc
%c cc cc ccc ccc cccc cccc cccc cccc ccccc ccccc ccccc ccccc
%f  0.0000000  0.000000000  0.00000000000  0.000000000000000
%f  0.0000000  0.000000000  0.00000000000  0.000000000000000
%i    0    0    0    0      0      0      0      0         0
%i    0    0    0    0      0      0      0      0         0
/* IAC                                ULTRA-RAPID PREDICTION
/* S/V CLOCKS ARE ALIGNED TO GNSS TIME                      
/* G:C1WC2W R:C1PC2P E:C1XC5X C:C2IC6I J:C1CC2S             
/* PCV:IGS20_2239 OL/AL:FES2004  NONE     YN ORB:CoN CLK:CoN
*  2023 02 03 11 30  0.00000000
PC06  -1924.867361  29880.084145 -29569.471553   -189.676029
PC07 -15723.419684  28894.094255  26330.096978    167.666141
PC08 -11514.067918  40659.074994   -471.934562    527.409041
PC09   5484.693893  33746.892233 -23929.567399    524.756255
PC10  -8215.589773  29131.906216  29477.871118     19.137799
PC11  19931.075170     11.275178 -19467.798023   -141.486327
PC12  23167.436253  14698.899293  -5061.119665    432.173688
PC13  -7573.360490  41293.314390  -5059.714777    198.921615
PC14  26148.013296  -9781.890240   -972.912443    438.278281
PC16  -2625.217763  28737.293021 -30425.813030     67.677492
PC19 -22075.552881  14913.266098  -8253.291317   -895.033614
PC20 -26219.638924   4219.198166   8545.245173    740.096927
PC21  14843.670673   9858.147903 -21463.275345   -912.728323
PC22  -4955.756441  17517.352210 -21142.431960   -652.093139
PC23   3278.610447 -27686.927598  -1094.095816   -874.752397
PC24  16210.744653   1920.952146  22612.620315   -458.014666
PC25  13066.735601 -19778.347880  14693.685442     65.911876
PC26  10150.283610  19409.969321  17293.317473    -73.505551
PC27 -20036.118654 -19154.427786  -3323.174940     91.229962
PC28  -5948.134386 -20668.412153 -17776.807505     66.251344
PC29 -12878.222868  10053.416252  22620.339520     76.097209
PC30 -23857.894094  -6565.716770  12921.764697      1.213470
PC32 -14826.020045  -9834.984806  21514.531325   -631.927581
PC33  22040.404189 -15044.735926   8193.062644   -875.496528
PC34  23553.477553   5488.673427 -13909.207566     97.929431
PC35   5360.936676  20172.596033  18495.183636    686.777621
PC36 -13788.010963  18922.309025 -15178.676997   -650.262773
PC37  -8922.297939 -20712.175972 -16413.880139   -830.180020
PC38 -15561.621307  38421.427294   8127.285405     56.284568
PC39  -8362.083572  24224.689414 -33408.367084     -1.684936
PC40 -22448.051563  22851.676644  27278.851487    -14.173296
PC41   5546.385300 -17693.930199  20909.448802   -568.403217
PC42  25976.625187  -3383.046986  -9601.014999   -857.945448
PC43  13635.343446  -9505.544418 -22418.819323      5.311385
PC44  20599.003858  18472.795779   3471.553908      3.741820
PC45  -3044.822059  27714.682713   1476.568311    -55.741877
PC46 -16353.721533    242.199836 -22622.502045    -30.878964
PE01  -8560.051231 -15266.744055 -23874.298970   -599.859573
PE02   8876.879514  14959.792665  23943.758790     18.576534
PE03  20969.927016  14303.814268 -15235.806717   -646.336878
PE04 -29338.118169  -3282.555726  -2189.046343    -50.208845
PE05     43.268992  17169.775762 -24109.930240    -98.935956
PE07  20673.971591  -9918.500245  18725.088236    -20.110961
PE08  29344.353587   3317.467962   2073.101700    -30.016434
PE09 -20787.197599   9742.585819 -18679.481203   -822.959290
PE10 -15605.006374   3970.568536  24836.393939   -509.720744
PE11 -10284.022305  15253.800747  23181.343168    733.164578
PE12 -18122.182059  -6877.836837  22381.420531   -408.329768
PE14  -6958.509102 -19599.807993 -20199.417745    131.689663
PE15  18098.920035   7218.212730 -22267.205992    689.817355
PE18  23147.290281  14764.243658   8664.590610   -434.074433
PE19 -18646.285220 -15246.953564  17215.119684  -3326.448244
PE21   7544.419661 -24693.455652 -14471.478598   -510.005344
PE24 -21104.428183  20232.995042  -4749.089474  -1093.678887
PE25  -7841.045792  24764.041477  14203.484409   -598.584804
PE26  -3346.729707 -27588.754060 -10184.415467      7.510461
PE27  20671.963431 -20808.326674   3910.774856   -503.313773
PE30  21313.092324  -3937.532211  20135.086181  -1212.520777
PE31 -21497.622159   4721.554599 -19796.988701   -515.037480
PE33 -14758.191500 -24427.561987   7887.095706   -452.838895
PE34  14864.384043  24307.270309  -8029.205848    -28.170037
PE36   2846.447986  27327.384392  11006.249387     -6.902059
PG01 -14831.904461    180.692849  21750.391491    216.789238
PG02  13834.976422  -5221.787852 -21434.006033   -623.286614
PG03 -20942.838979   9559.129028  13025.907552   -367.114794
PG04 -24555.409861    806.017099 -10227.036987    -35.409310
PG05  15393.938464   4726.374491 -21309.930006   -114.472932
PG06   5075.679794  25754.639192   3773.405073    567.795725
PG07  -9383.507039  15479.065491 -18834.511162    247.748157
PG08 -25948.502444  -6421.846202  -1578.205806   -106.663951
PG09 -16952.063559   9570.969267 -18165.689177   -225.021401
PG10   7987.605579 -21607.443898  13110.752418    -23.126762
PG11  12156.253616  21675.701109  -9409.236672    -94.512316
PG12  21369.314226  -6816.894360  13865.394847   -335.853579
PG13  21847.286507  13582.327827  -7177.586507    470.065329
PG14 -10839.697951  21696.067779  10682.951421    -35.654066
PG15  26416.234900   3715.703525  -1785.995270     10.215041
PG16 -13082.884939  -8526.480120 -21829.662466   -521.614571
PG17  -3559.598593  14668.656313  22288.659123    697.652287
PG18   7074.751235 -18610.258336 -17504.861517   -125.283740
PG19   8723.643383  16490.193077  18781.418570    272.737222
PG20   7598.402624  15179.958221 -20444.458902    453.028590
PG21 -17628.908771  -8464.614189  18916.915967    153.804905
PG22 -11936.552019 -16594.841350  17481.909323    419.424396
PG23  16279.374711 -20771.013241   2201.352703      4.668203
PG24  17181.920825   3694.524877  19675.427344    -57.945750
PG25  20305.665348 -15504.379968   6406.151136    416.934406
PG26  -2777.356246 -18529.579748 -18807.995881    241.139736
PG27 -20344.419275 -12946.521748 -11822.536412    111.294548
PG29  19856.650646  -5652.044736 -16798.774032   -584.057731
PG30   -847.268695  24256.345207 -10382.066922   -531.471960
PG31  -6100.922267 -25539.277724   1478.454914   -208.191369
PG32   -679.806908 -15666.147559  21621.710686   -384.645116
PJ02 -28869.293237  30537.544943   1124.260098     -0.766939
PJ03 -25236.879190  23425.997737  29450.299952      0.087513
PJ04 -32088.778816  25202.309778  -5245.315625    121.822357
PR01 -11318.666356  -7958.077352  21430.231089     22.391384
PR02 -24215.325623    718.274504   8138.788679    -23.302478
PR03 -22073.877929   8845.011481  -9264.882501     71.847743
PR04  -7849.525277  11599.762153 -21292.870307    174.388968
PR05  10628.500250   8242.975124 -21654.961068    107.157383
PR07  21534.005226  -9135.441875  10151.480647     49.206561
PR08   7501.389929 -11771.754267  21401.012965    -69.324497
PR09  11801.353589   -164.138031  22631.843092    102.082412
PR11   7055.063529 -24462.956091  -1665.816473     -0.283064
PR12  -3437.669646 -17440.916082 -18266.533574     24.772819
PR13 -11013.154045  -1797.131245 -22959.282479    -31.610710
PR14 -12731.640649  17114.547465 -13973.789144     24.328940
PR15  -6733.657412  24443.516030   2819.178417     91.332201
PR16   3293.198885  17635.194362  18122.228794     10.809858
PR17  -9958.448460   4516.194588  23055.683822    601.559180
PR18   2970.375349  16685.808715  19060.330531     64.964454
PR19  13148.914957  20890.804876   6432.174942   -220.566722
PR20  17615.602566  12171.484610 -13814.433084    -87.023990
PR21   8785.200472  -5822.627334 -23224.654195   -370.446814
PR22  -2835.612783 -17487.024266 -18331.297755     69.421456
PR24 -18130.031314 -10932.956039  14243.072117    144.142568
PR25  10646.076470  -3880.575611 -22845.943312     53.412167
EOF
